CRE (WAAS/PRN 138)      
1 28868U 05036A   23213.63799894 -.00000081  00000+0  00000+0 0  9990
2 28868   1.6017  89.4927 0003099  21.5233 321.3233  1.00271193 65625
IOR-W (EGNOS/PRN 126)   
1 28899U 05044A   23214.17359949  .00000003  00000+0  00000+0 0  9999
2 28899   3.8436  40.6082 0002851  97.6324 298.6473  1.00269010 64973
QZS-1 (QZSS/PRN 183)    
1 37158U 10045A   23207.91293981  .00000017  00000+0  00000+0 0  9996
2 37158  42.7673 127.8413 0408044 269.8132 316.8783  0.93974245    12
GSAT-8 (GAGAN/PRN 127)  
1 37605U 11022A   23214.00080946  .00000077  00000+0  00000+0 0  9998
2 37605   0.0082 316.4095 0002644 301.7338 107.5617  1.00273233 44716
LUCH 5A (SDCM/PRN 140)  
1 37951U 11074B   23213.61618958 -.00000058  00000+0  00000+0 0  9995
2 37951   6.0570  90.2855 0005473  35.3190 213.1050  1.00270630 42652
SES-5 (EGNOS/PRN 136)   
1 38652U 12036A   23213.73203209  .00000027  00000+0  00000+0 0  9990
2 38652   0.0544 282.9707 0002265 206.3473  89.2543  1.00270718 40533
GSAT-10 (GAGAN/PRN 128) 
1 38779U 12051B   23213.79319005 -.00000171  00000+0  00000+0 0  9996
2 38779   0.0092 328.5912 0000267 290.7958  59.2942  1.00270678 39769
LUCH 5B (SDCM/PRN 125)  
1 38977U 12061A   23214.37271937 -.00000146  00000+0  00000+0 0  9995
2 38977   8.1824  59.4091 0005907  88.0135 281.1641  1.00270887 39652
ASTRA 5B (EGNOS/PRN 123)
1 39617U 14011B   23213.97554385  .00000130  00000+0  00000+0 0  9992
2 39617   0.0604 305.0704 0002791 206.5070 173.4024  1.00270175 34344
LUCH 5V (SDCM/PRN 141)  
1 39727U 14023A   23213.80338473 -.00000277  00000+0  00000+0 0  9990
2 39727   2.4902  77.4162 0002705  95.2714 161.3839  1.00273810551976
GSAT-15 (GAGAN/PRN 139) 
1 41028U 15065A   23212.89323720 -.00000260  00000+0  00000+0 0  9993
2 41028   0.0218 291.3369 0002982 177.4195 255.5489  1.00270721 28329
E 117 W B (WAAS/PRN 131)
1 41589U 16038B   23213.16734616 -.00000015  00000+0  00000+0 0  9995
2 41589   0.0075 198.2187 0000209  83.8603 330.6656  1.00271017 26169
SES-15 (WAAS/PRN 133)   
1 42709U 17026A   23214.47908486  .00000050  00000+0  00000+0 0  9999
2 42709   0.0156  35.0354 0000880 112.4541 206.6448  1.00275804 23664
QZS-2 (QZSS/PRN 184)    
1 42738U 17028A   23214.42784608 -.00000116  00000+0  00000+0 0  9990
2 42738  41.0946 258.3364 0755759 269.6596  78.4510  1.00273546 22616
QZS-3 (QZSS/PRN 189)    
1 42917U 17048A   23213.68463212 -.00000354  00000+0  00000+0 0  9997
2 42917   0.0619 200.2718 0001928 306.3340 176.8828  1.00266780 21834
QZS-4 (QZSS/PRN 185)    
1 42965U 17062A   23214.25872245 -.00000326  00000+0  00000+0 0  9999
2 42965  40.6490 356.8656 0746233 268.7155 276.3877  1.00289536 21275
BEIDOU-3 G1 (PRN 130)   
1 43683U 18085A   23213.75887887 -.00000286  00000+0  00000+0 0  9990
2 43683   1.4430 126.7676 0003452 344.0776 252.4624  1.00267792 17522
BEIDOU-3 G2 (PRN 144)   
1 45344U 20017A   23213.79008688 -.00000147  00000+0  00000+0 0  9998
2 45344   2.0291  14.4287 0003559 128.6431 171.5008  1.00269690 12737
BEIDOU-3 G3 (PRN 143)   
1 45807U 20040A   23213.81517181 -.00000359  00000+0  00000+0 0  9999
2 45807   0.6489 337.1696 0004959  13.7213   3.1965  1.00267325 11554
GALAXY 30 (WAAS/PRN 135)
1 46114U 20056C   23213.70616185  .00000031  00000+0  00000+0 0  9996
2 46114   0.0153  66.0757 0002286  66.8643 306.3136  1.00271493 10874
